DELTA 2 R/B(1)          
1 20453U 90008B   26057.58959129  .00069547  00000+0  86209-3 0  9997
2 20453  35.6029 247.6121 0087705 155.5426 204.9506 15.54271150924405
COSMOS 2058             
1 20465U 90010A   26057.45836998  .00003966  00000+0  23426-3 0  9992
2 20465  82.4669  58.4931 0010159  20.9889 339.1756 15.11204715940549
SL-14 R/B               
1 20466U 90010B   26057.08604941  .00000366  00000+0  41500-4 0  9998
2 20466  82.4997 278.2909 0019333 342.5117  17.5430 14.83557370926761
SL-14 R/B               
1 20511U 90018B   26057.49778227  .00000497  00000+0  59409-4 0  9993
2 20511  82.5184 233.5519 0017453 126.0368 234.2467 14.82130320920927
HST                     
1 20580U 90037B   26057.39275493  .00007522  00000+0  24946-3 0  9999
2 20580  28.4693 117.0524 0001339   7.6590 352.4025 15.29278631771585
SL-16 R/B               
1 20625U 90046B   26057.45720767 -.00000058  00000+0 -51904-5 0  9990
2 20625  71.0014 321.5043 0015891 314.9165  45.0668 14.15015386846800
COSMOS 2084             
1 20663U 90055A   26057.23193956  .00002852  00000+0  21027-3 0  9995
2 20663  62.7911  14.6523 0018874 187.2777 172.8052 15.05566199934595
SL-6 R/B(2)             
1 20666U 90055D   26057.06596920  .00001879  00000+0  15091-3 0  9999
2 20666  62.7829 293.3786 0022949 344.1094  15.9283 15.03531393936442
SL-8 R/B                
1 20775U 90078B   26057.28499101  .00014533  00000+0  42623-3 0  9994
2 20775  82.9002 261.5655 0364876  52.2748 311.0951 14.88633393807605
SL-8 R/B                
1 21088U 91006B   26057.43979323  .00000044  00000+0  29041-4 0  9992
2 21088  82.9461 178.4087 0023591  68.5540   0.0310 13.77492932762527
OKEAN-3                 
1 21397U 91039A   26057.24141329  .00003214  00000+0  22585-3 0  9994
2 21397  82.5200 347.9316 0014772  16.9623 343.2094 15.04711430863314
COSMOS 2151             
1 21422U 91042A   26057.54362679  .00001464  00000+0  11517-3 0  9991
2 21422  82.4936  94.4304 0014134  96.9022 263.3811 15.00055298861521
